[{"OBJECT_NAME":"CMS-02 (GSAT 24)","OBJECT_ID":"2022-067A","EPOCH":"2026-03-02T15:48:26.554752","MEAN_MOTION":1.00272235,"ECCENTRICITY":0.0002859,"INCLINATION":0.0531,"RA_OF_ASC_NODE":259.4683,"ARG_OF_PERICENTER":33.6145,"MEAN_ANOMALY":187.4659,"EPHEMERIS_TYPE":0,"CLASSIFICATION_TYPE":"U","NORAD_CAT_ID":52903,"ELEMENT_SET_NO":999,"REV_AT_EPOCH":1354,"BSTAR":0,"MEAN_MOTION_DOT":-1.82e-6,"MEAN_MOTION_DDOT":0},{"OBJECT_NAME":"MEASAT 3D","OBJECT_ID":"2022-067B","EPOCH":"2026-03-02T12:50:23.345088","MEAN_MOTION":1.00268275,"ECCENTRICITY":0.0003404,"INCLINATION":0.0077,"RA_OF_ASC_NODE":294.8943,"ARG_OF_PERICENTER":37.0602,"MEAN_ANOMALY":112.4704,"EPHEMERIS_TYPE":0,"CLASSIFICATION_TYPE":"U","NORAD_CAT_ID":52904,"ELEMENT_SET_NO":999,"REV_AT_EPOCH":1357,"BSTAR":0,"MEAN_MOTION_DOT":0,"MEAN_MOTION_DDOT":0},{"OBJECT_NAME":"SES-22","OBJECT_ID":"2022-071A","EPOCH":"2026-03-02T16:52:40.609920","MEAN_MOTION":1.00274316,"ECCENTRICITY":0.0001038,"INCLINATION":0.0223,"RA_OF_ASC_NODE":246.7183,"ARG_OF_PERICENTER":86.1093,"MEAN_ANOMALY":301.8132,"EPHEMERIS_TYPE":0,"CLASSIFICATION_TYPE":"U","NORAD_CAT_ID":52933,"ELEMENT_SET_NO":999,"REV_AT_EPOCH":645,"BSTAR":0,"MEAN_MOTION_DOT":8.7e-7,"MEAN_MOTION_DDOT":0},{"OBJECT_NAME":"WFOV (USA 332)","OBJECT_ID":"2022-073A","EPOCH":"2026-03-02T18:06:18.550368","MEAN_MOTION":1.00268728,"ECCENTRICITY":0.0001446,"INCLINATION":3.4378,"RA_OF_ASC_NODE":79.9041,"ARG_OF_PERICENTER":207.5212,"MEAN_ANOMALY":263.9107,"EPHEMERIS_TYPE":0,"CLASSIFICATION_TYPE":"U","NORAD_CAT_ID":52940,"ELEMENT_SET_NO":999,"REV_AT_EPOCH":1330,"BSTAR":0,"MEAN_MOTION_DOT":-3.77e-6,"MEAN_MOTION_DDOT":0},{"OBJECT_NAME":"TIANLIAN 2-03","OBJECT_ID":"2022-078A","EPOCH":"2026-03-02T19:45:02.835936","MEAN_MOTION":1.00272242,"ECCENTRICITY":0.0003315,"INCLINATION":0.4006,"RA_OF_ASC_NODE":72.9335,"ARG_OF_PERICENTER":252.2707,"MEAN_ANOMALY":142.2359,"EPHEMERIS_TYPE":0,"CLASSIFICATION_TYPE":"U","NORAD_CAT_ID":53100,"ELEMENT_SET_NO":999,"REV_AT_EPOCH":1348,"BSTAR":0,"MEAN_MOTION_DOT":5.6e-7,"MEAN_MOTION_DDOT":0},{"OBJECT_NAME":"SBIRS GEO-6 (USA 336)","OBJECT_ID":"2022-092A","EPOCH":"2026-03-02T06:16:51.674016","MEAN_MOTION":1.00271002,"ECCENTRICITY":0.00023431,"INCLINATION":3.4412,"RA_OF_ASC_NODE":315.8038,"ARG_OF_PERICENTER":17.3511,"MEAN_ANOMALY":60.0762,"EPHEMERIS_TYPE":0,"CLASSIFICATION_TYPE":"U","NORAD_CAT_ID":53355,"ELEMENT_SET_NO":999,"REV_AT_EPOCH":1316,"BSTAR":0,"MEAN_MOTION_DOT":-3.1e-6,"MEAN_MOTION_DDOT":0},{"OBJECT_NAME":"EUTELSAT KONNECT VHTS","OBJECT_ID":"2022-110A","EPOCH":"2026-03-02T17:33:06.734016","MEAN_MOTION":1.00270548,"ECCENTRICITY":0.000287,"INCLINATION":0.0577,"RA_OF_ASC_NODE":102.733,"ARG_OF_PERICENTER":211.5116,"MEAN_ANOMALY":112.2093,"EPHEMERIS_TYPE":0,"CLASSIFICATION_TYPE":"U","NORAD_CAT_ID":53765,"ELEMENT_SET_NO":999,"REV_AT_EPOCH":576,"BSTAR":0,"MEAN_MOTION_DOT":0,"MEAN_MOTION_DDOT":0},{"OBJECT_NAME":"ZHONGXING-1E","OBJECT_ID":"2022-112A","EPOCH":"2026-03-02T16:12:48.940416","MEAN_MOTION":1.00269698,"ECCENTRICITY":0.0003504,"INCLINATION":0.0161,"RA_OF_ASC_NODE":119.6322,"ARG_OF_PERICENTER":181.9086,"MEAN_ANOMALY":183.4675,"EPHEMERIS_TYPE":0,"CLASSIFICATION_TYPE":"U","NORAD_CAT_ID":53813,"ELEMENT_SET_NO":999,"REV_AT_EPOCH":1278,"BSTAR":0,"MEAN_MOTION_DOT":-1.65e-6,"MEAN_MOTION_DDOT":0},{"OBJECT_NAME":"SES-20","OBJECT_ID":"2022-123A","EPOCH":"2026-03-02T15:20:08.988288","MEAN_MOTION":1.00271527,"ECCENTRICITY":0.0001362,"INCLINATION":0.0126,"RA_OF_ASC_NODE":108.6101,"ARG_OF_PERICENTER":312.985,"MEAN_ANOMALY":225.7324,"EPHEMERIS_TYPE":0,"CLASSIFICATION_TYPE":"U","NORAD_CAT_ID":53960,"ELEMENT_SET_NO":999,"REV_AT_EPOCH":1246,"BSTAR":0,"MEAN_MOTION_DOT":-1.18e-6,"MEAN_MOTION_DDOT":0},{"OBJECT_NAME":"SES-21","OBJECT_ID":"2022-123B","EPOCH":"2026-03-02T03:13:22.801152","MEAN_MOTION":1.00274061,"ECCENTRICITY":0.00012722,"INCLINATION":0.0269,"RA_OF_ASC_NODE":62.3642,"ARG_OF_PERICENTER":278.1394,"MEAN_ANOMALY":96.7563,"EPHEMERIS_TYPE":0,"CLASSIFICATION_TYPE":"U","NORAD_CAT_ID":53961,"ELEMENT_SET_NO":999,"REV_AT_EPOCH":613,"BSTAR":0,"MEAN_MOTION_DOT":5.1e-7,"MEAN_MOTION_DDOT":0},{"OBJECT_NAME":"GALAXY 33 (G-33)","OBJECT_ID":"2022-128A","EPOCH":"2026-03-02T16:54:17.954208","MEAN_MOTION":1.00274158,"ECCENTRICITY":0.0001987,"INCLINATION":0.0229,"RA_OF_ASC_NODE":250.381,"ARG_OF_PERICENTER":79.2798,"MEAN_ANOMALY":311.3746,"EPHEMERIS_TYPE":0,"CLASSIFICATION_TYPE":"U","NORAD_CAT_ID":54026,"ELEMENT_SET_NO":999,"REV_AT_EPOCH":1267,"BSTAR":0,"MEAN_MOTION_DOT":6.2e-7,"MEAN_MOTION_DDOT":0},{"OBJECT_NAME":"GALAXY 34 (G-34)","OBJECT_ID":"2022-128B","EPOCH":"2026-03-02T16:55:32.835360","MEAN_MOTION":1.00270818,"ECCENTRICITY":0.0001359,"INCLINATION":0.0182,"RA_OF_ASC_NODE":158.1182,"ARG_OF_PERICENTER":184.2949,"MEAN_ANOMALY":303.0424,"EPHEMERIS_TYPE":0,"CLASSIFICATION_TYPE":"U","NORAD_CAT_ID":54027,"ELEMENT_SET_NO":999,"REV_AT_EPOCH":1284,"BSTAR":0,"MEAN_MOTION_DOT":0,"MEAN_MOTION_DDOT":0},{"OBJECT_NAME":"ANGOSAT 2","OBJECT_ID":"2022-131A","EPOCH":"2026-03-02T21:17:56.499072","MEAN_MOTION":1.00272775,"ECCENTRICITY":4.89e-5,"INCLINATION":0.0117,"RA_OF_ASC_NODE":160.7616,"ARG_OF_PERICENTER":287.3108,"MEAN_ANOMALY":55.0518,"EPHEMERIS_TYPE":0,"CLASSIFICATION_TYPE":"U","NORAD_CAT_ID":54033,"ELEMENT_SET_NO":999,"REV_AT_EPOCH":1241,"BSTAR":0,"MEAN_MOTION_DOT":1.19e-6,"MEAN_MOTION_DDOT":0},{"OBJECT_NAME":"EUTELSAT HOTBIRD 13F","OBJECT_ID":"2022-134A","EPOCH":"2026-03-02T17:35:58.958592","MEAN_MOTION":1.00271838,"ECCENTRICITY":0.0002118,"INCLINATION":0.0592,"RA_OF_ASC_NODE":296.0713,"ARG_OF_PERICENTER":60.3674,"MEAN_ANOMALY":81.0436,"EPHEMERIS_TYPE":0,"CLASSIFICATION_TYPE":"U","NORAD_CAT_ID":54048,"ELEMENT_SET_NO":999,"REV_AT_EPOCH":1230,"BSTAR":0,"MEAN_MOTION_DOT":7.0e-7,"MEAN_MOTION_DDOT":0},{"OBJECT_NAME":"LDPE-2","OBJECT_ID":"2022-144A","EPOCH":"2026-03-02T15:06:11.894112","MEAN_MOTION":1.00558579,"ECCENTRICITY":6.51e-5,"INCLINATION":5.384,"RA_OF_ASC_NODE":64.3205,"ARG_OF_PERICENTER":220.1343,"MEAN_ANOMALY":203.8971,"EPHEMERIS_TYPE":0,"CLASSIFICATION_TYPE":"U","NORAD_CAT_ID":54219,"ELEMENT_SET_NO":999,"REV_AT_EPOCH":1077,"BSTAR":0,"MEAN_MOTION_DOT":-3.59e-6,"MEAN_MOTION_DDOT":0},{"OBJECT_NAME":"EUTELSAT HOTBIRD 13G","OBJECT_ID":"2022-146A","EPOCH":"2026-03-02T15:53:20.806368","MEAN_MOTION":1.00271894,"ECCENTRICITY":0.000188,"INCLINATION":0.0496,"RA_OF_ASC_NODE":233.9645,"ARG_OF_PERICENTER":311.1412,"MEAN_ANOMALY":226.6552,"EPHEMERIS_TYPE":0,"CLASSIFICATION_TYPE":"U","NORAD_CAT_ID":54225,"ELEMENT_SET_NO":999,"REV_AT_EPOCH":639,"BSTAR":0,"MEAN_MOTION_DOT":7.0e-7,"MEAN_MOTION_DDOT":0},{"OBJECT_NAME":"ZHONGXING-19","OBJECT_ID":"2022-148A","EPOCH":"2026-03-02T19:11:38.452704","MEAN_MOTION":1.00271252,"ECCENTRICITY":0.0002628,"INCLINATION":0.0137,"RA_OF_ASC_NODE":106.7223,"ARG_OF_PERICENTER":230.532,"MEAN_ANOMALY":274.4318,"EPHEMERIS_TYPE":0,"CLASSIFICATION_TYPE":"U","NORAD_CAT_ID":54230,"ELEMENT_SET_NO":999,"REV_AT_EPOCH":1231,"BSTAR":0,"MEAN_MOTION_DOT":-9.8e-7,"MEAN_MOTION_DDOT":0},{"OBJECT_NAME":"GALAXY 31 (G-31)","OBJECT_ID":"2022-153A","EPOCH":"2026-03-02T16:57:47.619360","MEAN_MOTION":1.00271733,"ECCENTRICITY":0.0001471,"INCLINATION":0.0189,"RA_OF_ASC_NODE":209.2906,"ARG_OF_PERICENTER":138.0128,"MEAN_ANOMALY":306.6085,"EPHEMERIS_TYPE":0,"CLASSIFICATION_TYPE":"U","NORAD_CAT_ID":54243,"ELEMENT_SET_NO":999,"REV_AT_EPOCH":606,"BSTAR":0,"MEAN_MOTION_DOT":-3.0e-8,"MEAN_MOTION_DDOT":0},{"OBJECT_NAME":"GALAXY 32 (G-32)","OBJECT_ID":"2022-153B","EPOCH":"2026-03-02T12:35:56.887008","MEAN_MOTION":1.00268682,"ECCENTRICITY":0.00030634,"INCLINATION":0.0216,"RA_OF_ASC_NODE":135.3517,"ARG_OF_PERICENTER":218.5101,"MEAN_ANOMALY":264.4439,"EPHEMERIS_TYPE":0,"CLASSIFICATION_TYPE":"U","NORAD_CAT_ID":54244,"ELEMENT_SET_NO":999,"REV_AT_EPOCH":1207,"BSTAR":0,"MEAN_MOTION_DOT":0,"MEAN_MOTION_DDOT":0},{"OBJECT_NAME":"EUTELSAT 10B","OBJECT_ID":"2022-157A","EPOCH":"2026-03-02T17:35:06.540576","MEAN_MOTION":1.00267461,"ECCENTRICITY":0.0001105,"INCLINATION":0.0572,"RA_OF_ASC_NODE":101.9131,"ARG_OF_PERICENTER":23.3577,"MEAN_ANOMALY":308.9654,"EPHEMERIS_TYPE":0,"CLASSIFICATION_TYPE":"U","NORAD_CAT_ID":54259,"ELEMENT_SET_NO":999,"REV_AT_EPOCH":1195,"BSTAR":0,"MEAN_MOTION_DOT":5.1e-7,"MEAN_MOTION_DDOT":0},{"OBJECT_NAME":"GALAXY 35 (G-35)","OBJECT_ID":"2022-170A","EPOCH":"2026-03-02T13:40:18.559200","MEAN_MOTION":1.00271415,"ECCENTRICITY":0.0002084,"INCLINATION":0.0199,"RA_OF_ASC_NODE":119.3289,"ARG_OF_PERICENTER":219.6797,"MEAN_ANOMALY":293.3084,"EPHEMERIS_TYPE":0,"CLASSIFICATION_TYPE":"U","NORAD_CAT_ID":54741,"ELEMENT_SET_NO":999,"REV_AT_EPOCH":1182,"BSTAR":0,"MEAN_MOTION_DOT":-1.79e-6,"MEAN_MOTION_DDOT":0},{"OBJECT_NAME":"GALAXY 36 (G-36)","OBJECT_ID":"2022-170B","EPOCH":"2026-03-02T13:41:33.440352","MEAN_MOTION":1.00270828,"ECCENTRICITY":0.0001973,"INCLINATION":0.0133,"RA_OF_ASC_NODE":151.9658,"ARG_OF_PERICENTER":241.7193,"MEAN_ANOMALY":243.0339,"EPHEMERIS_TYPE":0,"CLASSIFICATION_TYPE":"U","NORAD_CAT_ID":54742,"ELEMENT_SET_NO":999,"REV_AT_EPOCH":1170,"BSTAR":0,"MEAN_MOTION_DOT":-2.02e-6,"MEAN_MOTION_DDOT":0},{"OBJECT_NAME":"METEOSAT-12 (MTG-I1)","OBJECT_ID":"2022-170C","EPOCH":"2026-03-02T17:32:14.317728","MEAN_MOTION":1.00274508,"ECCENTRICITY":0.0001928,"INCLINATION":0.7438,"RA_OF_ASC_NODE":28.9118,"ARG_OF_PERICENTER":281.1614,"MEAN_ANOMALY":113.1972,"EPHEMERIS_TYPE":0,"CLASSIFICATION_TYPE":"U","NORAD_CAT_ID":54743,"ELEMENT_SET_NO":999,"REV_AT_EPOCH":1191,"BSTAR":0,"MEAN_MOTION_DOT":-2.3e-7,"MEAN_MOTION_DDOT":0},{"OBJECT_NAME":"SHIJIAN-23 (SJ-23)","OBJECT_ID":"2023-002A","EPOCH":"2026-03-02T12:12:01.207584","MEAN_MOTION":1.00488962,"ECCENTRICITY":0.0005874,"INCLINATION":3.4435,"RA_OF_ASC_NODE":79.6797,"ARG_OF_PERICENTER":259.9353,"MEAN_ANOMALY":131.6997,"EPHEMERIS_TYPE":0,"CLASSIFICATION_TYPE":"U","NORAD_CAT_ID":55131,"ELEMENT_SET_NO":999,"REV_AT_EPOCH":1144,"BSTAR":0,"MEAN_MOTION_DOT":-3.38e-6,"MEAN_MOTION_DDOT":0}]
